{
    "links": {
        "self": "http://www.neowsapp.com/rest/v1/neo/54013542?api_key=iIulBulltgU6a56xZRHN4H3l9WmuAYTsLGpBGhQ2"
    },
    "id": "54013542",
    "neo_reference_id": "54013542",
    "name": "(2020 EH)",
    "designation": "2020 EH",
    "nasa_jpl_url": "http://ssd.jpl.nasa.gov/sbdb.cgi?sstr=54013542",
    "absolute_magnitude_h": 21.041,
    "estimated_diameter": {
        "kilometers": {
            "estimated_diameter_min": 0.1645716323,
            "estimated_diameter_max": 0.3679933569
        },
        "meters": {
            "estimated_diameter_min": 164.5716322645,
            "estimated_diameter_max": 367.9933569114
        },
        "miles": {
            "estimated_diameter_min": 0.1022600397,
            "estimated_diameter_max": 0.2286604002
        },
        "feet": {
            "estimated_diameter_min": 539.9331939985,
            "estimated_diameter_max": 1207.3273250892
        }
    },
    "is_potentially_hazardous_asteroid": false,
    "close_approach_data": [
        {
            "close_approach_date": "2020-03-27",
            "close_approach_date_full": "2020-Mar-27 15:16",
            "epoch_date_close_approach": 1585322160000,
            "relative_velocity": {
                "kilometers_per_second": "29.4845130316",
                "kilometers_per_hour": "106144.2469138057",
                "miles_per_hour": "65953.9072004144"
            },
            "miss_distance": {
                "astronomical": "0.114193404",
                "lunar": "44.421234156",
                "kilometers": "17083090.00644948",
                "miles": "10614939.908703624"
            },
            "orbiting_body": "Earth"
        },
        {
            "close_approach_date": "2022-10-04",
            "close_approach_date_full": "2022-Oct-04 16:22",
            "epoch_date_close_approach": 1664900520000,
            "relative_velocity": {
                "kilometers_per_second": "33.4593387521",
                "kilometers_per_hour": "120453.6195076273",
                "miles_per_hour": "74845.1948546143"
            },
            "miss_distance": {
                "astronomical": "0.2204364734",
                "lunar": "85.7497881526",
                "kilometers": "32976826.890951658",
                "miles": "20490850.0566945604"
            },
            "orbiting_body": "Earth"
        },
        {
            "close_approach_date": "2168-03-14",
            "close_approach_date_full": "2168-Mar-14 20:23",
            "epoch_date_close_approach": 6254655780000,
            "relative_velocity": {
                "kilometers_per_second": "37.8822674387",
                "kilometers_per_hour": "136376.1627791429",
                "miles_per_hour": "84738.844033518"
            },
            "miss_distance": {
                "astronomical": "0.3134782511",
                "lunar": "121.9430396779",
                "kilometers": "46895678.655885157",
                "miles": "29139623.4944708866"
            },
            "orbiting_body": "Earth"
        },
        {
            "close_approach_date": "2170-09-12",
            "close_approach_date_full": "2170-Sep-12 11:30",
            "epoch_date_close_approach": 6333420600000,
            "relative_velocity": {
                "kilometers_per_second": "28.852492528",
                "kilometers_per_hour": "103868.9731008407",
                "miles_per_hour": "64540.1405359085"
            },
            "miss_distance": {
                "astronomical": "0.3615414715",
                "lunar": "140.6396324135",
                "kilometers": "54085834.053065705",
                "miles": "33607378.885708529"
            },
            "orbiting_body": "Earth"
        },
        {
            "close_approach_date": "2177-04-05",
            "close_approach_date_full": "2177-Apr-05 01:58",
            "epoch_date_close_approach": 6540487080000,
            "relative_velocity": {
                "kilometers_per_second": "24.7234837868",
                "kilometers_per_hour": "89004.5416323202",
                "miles_per_hour": "55303.9608825936"
            },
            "miss_distance": {
                "astronomical": "0.3391462738",
                "lunar": "131.9279005082",
                "kilometers": "50735560.178916806",
                "miles": "31525615.2329756828"
            },
            "orbiting_body": "Earth"
        }
    ],
    "orbital_data": {
        "orbit_id": "15",
        "orbit_determination_date": "2020-03-28 06:13:20",
        "first_observation_date": "2020-03-05",
        "last_observation_date": "2020-03-26",
        "data_arc_in_days": 21,
        "observations_used": 180,
        "orbit_uncertainty": "7",
        "minimum_orbit_intersection": ".0956119",
        "jupiter_tisserand_invariant": "3.593",
        "epoch_osculation": "2459000.5",
        "eccentricity": ".6950916825492401",
        "semi_major_axis": "1.730314798486746",
        "inclination": "45.04145379151068",
        "ascending_node_longitude": ".7372062805592178",
        "orbital_period": "831.3542283842961",
        "perihelion_distance": ".5275873738667443",
        "perihelion_argument": "288.7092532853508",
        "aphelion_distance": "2.933042223106747",
        "perihelion_time": "2458990.823856225720",
        "mean_anomaly": "4.190045157418326",
        "mean_motion": ".4330284104041254",
        "equinox": "J2000",
        "orbit_class": {
            "orbit_class_type": "APO",
            "orbit_class_description": "Near-Earth asteroid orbits which cross the Earth’s orbit similar to that of 1862 Apollo",
            "orbit_class_range": "a (semi-major axis) > 1.0 AU; q (perihelion) < 1.017 AU"
        }
    },
    "is_sentry_object": false
}